category_id,branch,co_name,address1,address2,address3,city,pin_code,phone,fax,email,website,contact,keywords
"Transporters, Transport Agents",CHENNAI,J.M.J. INTERNATIONAL FREIGHT FORWARDERS,"12/9, KRISHNAN KOIL STREET,",,,CHENNAI,600001,914425219840,914425219840,jmjaft@yahoo.co.in,,Mr. A.  Joseph,"Transporters, Transport Agents"
"Transporters, Transport Agents",,GLOBE TRANSPORT CORPORATION,"LAKSHMI COMPLEX, 4TH FLOOR, NO. 40, K.R. ROAD, FORT,",,,BANGALORE,560002,918026708444/26700455,918026706029,globein@vsnl.com,,Mr. Hemat kumar sharma,transportation thru surface
"Transporters, Transport Agents",DELHI,HARINDERA CARGO CARRIERS PVT. LTD.,"15/1, Ground Floor, East Patel Nagar,",,,NEW DELHI,110008,911142481781/25884871,911125884871,hccpl@rediffmail.com,,Mr. R.P.  Chawla,"Transporters, Transport Agents"
"Transporters, Transport Agents",DELHI,HARYANA GUJARAT ROAD CARRIERS,"93, KHANNA MARKET, TIS HAZARI,",,,DELHI,110054,911123918195/23917388/23969893,,ajayhgrcarriers@yahoo.co.in,,MR. AJAY  AHUJA,"DAILY SERVICE FROM DELHI TO GUJARAT & MAHARASHTRA,
FULL LOAD ACCEPTED FOR  ALL OVER INDIA Transporters, Transport Agents"
"Transporters, Transport Agents",,HEMJYOT AGENCY,"15, CONTRACTOR BLDG, VAJU KOTAK MARG, 1ST FLOOR, R.VO.21A, BALLARD ESTATE,",,,MUMBAI,400028,912222692170/71/22615677,912222692736,hemjyot@vsnl.com,,Mr. Krian  Soneta,"CLEARING, FORWARDING & TRANSPORT AGENT"
"Transporters, Transport Agents",DELHI,HIMACHAL GOLDEN CARRIERS (REGD.),"AG-374, SANJAY GANDHI TRANSPORT NAGAR, ",,,DELHI,110042,"9111 27831311, 27831258, 27833381",911127833407,hgcr11@rediffmail.com,,Mr. B. L. Gandhi,"service provider of transporters, packer and mover. Transporters, Transport Agents"
"Transporters, Transport Agents",,INDIAN FREIGHT FORWARDERS LTD.,"38, MEHTA CHAMBER, 5TH FLOOR, 127-A, KALYAN STREET, ",,,MUMBAI,400009,912223739537,912223721698/23721693,ifflmum@vsnl.in,,Mr. Sri  Kant,CUSTOM CLEARANCE & TRANSPORTATION
"Transporters, Transport Agents",,INDIAN TRANSPORT ORGANIZATION,"305, ASHIRWAD BUILDING, AHMEDABAD STREET,",,,MUMBAI,400009,912223750828,912223756353,ito@vsnl.net,http://www.itotransport.com,Mr. Vinod  Poddar,"TRANSPORTATION, PACKERS & MOVERS"
"Transporters, Transport Agents",,INTEGRATED SHIPPING SERVICES BANGALORE,"36 MES Colony, Behind MegaBowl, konena Agrahara, Bangalore 560017",,,BANGALORE,560017,918041256655,918041256655,,, Shabarinath  Nair,Shipping services
"Transporters, Transport Agents",,ISHARDAS & SONS,"22, SHROFF BHAVAN, 159, P. D. MILLO ROAD, CARNAC BUNDER,",,,MUMBAI,400001,912222616264,912222677732,ishardas@hotmail.com,,Mr. Hitesh  ,CRANES & TRAILERS - TRANSPORTERS
"Transporters, Transport Agents",MUMBAI,GANPATI TRANS LOGISTICS,"A-518, 5th floor, city mall, plot no.4, 
sec.-19, turbhe,",,,NAVI MUMBAI,400705,912227831704 / 27831705,912227831706,logistics@ganpatitransport.com,http://www.ganpatitransport.com,MR. KAPIL  BHATIA,"FLEET OWNERS & TRANSPORT CONTRACTOR.
SPL. IN NEWS PRINT, CARGO HANDLING, ODC CARGO EXP. & IMPT. CARGO. FULL TRUCK LOADED Transporters, Transport Agents"
"Transporters, Transport Agents",MUMBAI,J.K. LOGISTICS,"218 & 314, Anant Deep Chamber, 273/277 Narsi Natha Street, Masjid Bunder (W),",,,MUMBAI,400009,912240237120/121/123/124,912223700305,jk_ent1@rediffmail.com,http://www.jklogistic.net,Mr. Kirit J. Vora,"Transporters, Transport Agents"
"Transporters, Transport Agents",ONLINESALES,FAIRDEAL INTERNATIONAL,"306, Kanchan Sagar, Near Industry House, 18/1, Old Palasia, AB Road,",,,INDORE,452001,917314070280/4066277/2436556,917312436557,fdi@mantrafreenet.com,http://www.fairdealint.tradeindia.com,Mr. Ajay  Agarwal,"Worldwide Shipping and Forwarding, Trucking, Custom Clearance, Door to Door Transport of Goods, Warehousing Facilities, Tracing and Tracking System, Skilled Multilingual System, Selection of Ideal Routing, Personalized Services with a professional attitud"
"Transporters, Transport Agents",DELHI,JOGINDERA COMPANY PVT. LTD.,"115, Gupta Complex-1, Inderlok, Old Rohtak Road,",,,DELHI,110035,911123658856/65813540,911123659151,kohlisewak@hotmail.com,,Mr. Gursewak  Kohli,"Transporters, Transport Agents"
"Transporters, Transport Agents",,KERALA TRANPORT COMPANY,"Y.M.C.A. ROAD, KOZHIKODE,",,,KOZHIKODE,673001,914952766362,91495276660,ktcinclt@md2.vsnl.net.in,,MR. P V CHANDRAN,TRANSPORT
"Transporters, Transport Agents",,KERALA TRANSPORT CO.,"58, LANGFORD ROAD,",,,BANGALORE,560025,918022220288,918022290765,ktcinsbc@sify.com,,Mr. V S N Pillai,TRANSPORTER
"Transporters, Transport Agents",JODHPUR,MAHI SHIPPING PVT. LTD.,"""PARISHRAM"", 04, SECTOR-7, NEW POWER HOUSE ROAD, ",,,JODHPUR,342003,912913255366,912915120366,info@mahishipping.com,http://www.mahishipping.com,Mr. Prithvi  Singh Bhati,"Transporters, Transport Agents"
"Transporters, Transport Agents",DELHI,MEHTA TRANSPORT CORPORATION OF INDIA,"CG-192, Sanjay Gandhi Transport Nagar, ",,,DELHI,110042,911147551141/47552141/27831729/27831064/27831229,91114551214,mehta.transport@gmail.com,,"Mr. Parvesh  Mehta, Mr. Somnath  Mehta","We offer services in all interstate & Domestic Transport Services for all Kinds of goods. Transporters, Transport Agents"
"Transporters, Transport Agents",,MINUS PLUS ZERO PVT. LTD.,"D-62, Ground Floor, Sector-40,",,,NOIDA,201301,911204340568,911202578972/4340568,vikasdutt@minuspluszero.com,http://www.minuspluszero.com,Mr. Vikas  Dutt,transport
"Transporters, Transport Agents",DELHI,NEXUS LOGISTICS PVT. LTD.,"L-16, First Floor, Next to bikaner Sweets
Mahipalpur, EXT.",,,NEW DELHI,110037,911146062141/42/43/44,911130683020,rsharma@nexuslogisticsindia.com,http://www.nexuslogisticsindia.com,MR. RAJESH  SHARMA,"Transporters, Transport Agents"
"Transporters, Transport Agents",DELHI,PAHWA TRANSPORT CARRIER,"N95-a, shyam nagar, near 12 yard, p.o. tilak nagar,",,,NEW DELHI,110018,911128315314/32918161/20064383/25982412 ,911120064383,pahwatransport@trade-india.com,http://www.delhibazaaronline.com/auto/pahwa.htm,Mr. SANJEEV  PAHWA,"specail service for hydrabad, bombay, banglore & chennai & south Transporters, Transport Agents"
"Transporters, Transport Agents",DELHI,PRASHAR ROAD CARRIERS PVT. LTD.,"7483, Bansal Apartment, 1st Floor,Tel Mill Marg, Ram Nagar, Paharganj, ",,,NEW DELHI,110055,"911123540193, 23538036",911123620325,odcking@yahoo.com,http://www.prcpl.com,Mr. Aditya  Sharma,"transporter, cargo agents, logistic services, transport, c&f agent, cargo handling, logistics, transporter, cargo by air, cargo by road, cargo by train. Multi model Transport & Logistic Service Provides ByAir, Train Road & C&F Agent , Daily Fastest Parcel"
"Transporters, Transport Agents",,PRIME ENTERPRISES,"54/102, SHAKTHI SADAN, K.H. ROAD,",,,BANGALORE,560027,918022275351,918022275351,primerg@bgl.vsnl.net.in,,MR. RISHI  PRAKASH," Transporters, Transport Agents "
"Transporters, Transport Agents",,JAYDEEP ASSOCIATES LTD.,"'JAYDEEP HOUSE' SANALA ROAD, ",,,MORBI,363641,912822230304/230303/220203/233033/230305(R)/220305(R),912822230304,info@jaydeepgroup.com,http://www.jaydeepgroup.com,Mr. D. U. JADEJA,"barge-tug, transporter"
"Transporters, Transport Agents",DELHI,BEST TRANSPORT ORGANISATION,"507, M.G. House-1,2, Community Centre, Wazirpur,  ",,,NEW DELHI,110052,"911127377644, 27374644",,besttransport_2007@rediffmail.com,,Mr. Vinod  Mittal,"fleet owner and govt. transported contractor.(24 hours services) Transporters, Transport Agents"
"Transporters, Transport Agents",KOLKATA,AGARWAL LOGISTICS PVT. LTD.,"9-B, SHRI NATH ROY LANE, R.NO-20, 2ND FLOOR,",,,KOLKATA,700007,913322701100,913322715044,agarwallogistics@yahoo.co.in,,Mr.. Vikash   Agarwal,"SERVICE PROVIDER: TRANSPORTERS, TRANSPORT AGENTS Transporters, Transport Agents"
"Transporters, Transport Agents",DELHI,ADVANCE TRANSOCEAN SHIPPING SERVICES PVT. LTD.,"S-4, Akarshan Bhawan, 23, Ansari Road, Darya Ganj,",,,NEW DELHI,110002,911123246555/23244274/75/23258433/34/23280555/30120555-59,911123259275,"mukesh@advancetransocean.com, mukesh@advancetransocean.com, sales@advancetransocean.com, rakesh@advancetransocean.com, rajeevsingh@tradeindia.com",http://www.advancetransocean.com,"Mr. MUKESH  KUMAR, Mr. MUKESH  KUMAR, Ms Indu  Dhingra, Mr. Rakesh  Dhingra, Mr. Rajeev Singh Duhan","Transporters, Transport Agents"
"Transporters, Transport Agents",DELHI,AKAL TRANSPORT CO.,"A-4/A, Vishwakarma Colony, Mehrauli, Badarpur Road, Tuglakabad,",,,NEW DELHI,110044,911126360407/26369361,911126366701/26369361,p2katc@vsnl.net,,Mr. Jaspal  Singh,"FLEET OWNER & GOVT. TRANSPORT CONTRACTOR, TRANSPORTERS, TRANSPORT AGENTS Transporters, Transport Agents"
"Transporters, Transport Agents",DELHI,AKASH ROAD CORPORATION,"84, KHANNA MARKET, 1ST FLOOR, TIS HAZARI,",,,DELHI,110054,911123952791/23944873,,askashroad@yahoo.co.in,,MR. ANIL KUMAR MALIK,"DAILY SERVICE, FULL LOAD ACCEPTED FOR ALL OVER INDIA Transporters, Transport Agents"
"Transporters, Transport Agents",AHMEDABAD,ALANG SHIPPING PRIVATE  LIMITED,"45, Madhav Darshan Complex,",,,BHAVNAGAR,364001,912783001875,912783001876,alangad1@sancharnet.in,http://www.alangship.com,Mr. Jayesh R. Sonpal,"Transporters, Transport Agents"
"Transporters, Transport Agents",DELHI,ALPHA LOGISTIC SERVICES PVT. LTD.,"K-64A, Kalkaji, ",,,NEW DELHI,110019,"911126488356-57,41629910,26425601/4",911126488358,alpha_sales@airtelbroadband.in,http://www.alphalogistic.tradeindia.com,Mr. Puneet  Sharma," Transporters, Transport Agents"
"Transporters, Transport Agents",,ASIAN TRADERS,"27/3E - MUNIYASAMY PURAM, IIND STREET,",,,TUTICORIN,628003,914612378013,914612378013,aasiantraders@yahoo.com,,Mr. G. R. KRISHNAMURTHI,shipping and transport
"Transporters, Transport Agents",,A. S. PICK & MOVE,"B - 72, GROUND FLOOR, ROHIT HOUSE, VISHWAKARMA COLONY, M.B ROAD, ",,,NEW DELHI,110044,911126811910/26819844,911126816767,,,Mr. AJMER SINGH /  SUNIL JAIN  Singh,TRANSPORTER AGENTS
"Transporters, Transport Agents",,BAGAI GOLDEN TRANSPORT CO.,"E-4/6, SITARAM BUILDING, CRAWFORD MARKET,",,,MUMBAI,400001,912223446397/23429035/23448408,912223444999/23427494,admin@bagaigolden.com,http://www.bagaigolden.com,Mr. Prakash R Raghavan,BOOKING & TRANSPORTER
"Transporters, Transport Agents",DELHI,BALAJI CARGO MANAGEMENT SERVICES,"321, Apsara Cinema Complex, Delhi U.P.Border,
P.O.Chikamberpur,",,,GHAZIABAD,110032,911165399177/32404077,911202610277,info@balajicargo.com,http://www.balajicargo.com,Mr. Vinod  Goel,"DOMESTIC & INTERNATIONAL PROFESSIONAL , PROMPT, RELIABLE, ECONOMICAL, SAFE, WE HANDLE BY AIT & SEA OUTGOING EXPORT, CARGO SHIPMENTS WORLD WIDE , ANY WEIGHT, ANY SIZE WITH CUSTOM CLEARANCE, LOCAL TRANSPORTATION & PACKING FACILITIES & ALSO DOOR TO DOOR DELI"
"Transporters, Transport Agents",OLD-DELHI,EXPRESS CARGO CARRIERS,"9189/4, Multani Dhanda, Pahar Ganj, ",,,NEW DELHI,110055,911141597519/32463103,911141541345,expresscargo@tradeindia.com,http://www.ecc.trade-india.com,Mr. Soumen  Bhowmik,"TRANSPORTERS AGENT, GOODS CARRIER, CARGO CARRIER, LOGISTICS Transporters, Transport Agents"
"Transporters, Transport Agents",,BDP INDIA,"NEW#23, OLD#10/2, 2ND FLOOR, MOORE STREET,",,,CHENNAI,600001,914425267955/25267956,914425267957,pvs@bdpin.com,http://www.bdpin.com,Mr. Arun v Sridharan,TRANSPORTER
"Transporters, Transport Agents",,PRIVITECH LOGISTICS,"W-159, Greater Kailash Part-II,",,,NEW DELHI,110048,911141437885/86,911141639250,"satyendra@privitech.com, cc@privitech.com, privitech@gmail.com",http://www.privitech.com,"Mr. Satyendra  Singh, Mr. Hemant Kumar Jugran, Mr. Atal  Bhatt","INTERNATIONAL FREIGHT FORWARDERS (AIR & SEA - FCL/LCL), CUSTOM CLEARING, TRANSPORTATION, LIAISON WORKS, LEGALISATION OF EXPORT DOCUMENTS"
"Transporters, Transport Agents",,BIC LOGISTICS,"103/6, 4TH CROSS, 2ND FLOOR,
KALASIPALYAM NEW EXTENSION,",,,BANGALORE,560002,918022271217/22271218,,bicarier@giasbg01.vsnl.net.in,,MR. KAMALAKARAN  Bhandari,logistics
"Transporters, Transport Agents",,BIOPRODUCTS INDIA (P) LTD.,"54/102, SHAKTI SADNA, 
K. H. ROAD, ",,,BANGALORE,560027,918022226898/22234204,918022275351,primerg@bgl.vsnl.net.in,,MR. RISHI  PRAKASH," Transporters, Transport Agents "
"Transporters, Transport Agents",DELHI,CAPITAL TEMPO TRANSPORT CO.,"203, Kamla Market, Near Ajmeri Gate,",,,NEW DELHI,110002,911123230415/23232962/23236275/23221252/23234165/23233187/23213498/23230415,911123232010/23230415,"info51@tradeindia.com, infocapital_tempo@rediffmail.com, capital_tempo@rediffmail.com",http://www.capitaltempotransportco.com,"Mr.   , Mr. SANJEEV  KUMAR, MR. GURBHACHAN  , Mr. Jatinder   Singh, Mr. LAL  CHAND","full truck canter tata-407, 709. all type vehicle for all over india. br-off-cg-210sg, tpt. ngr., nd. -42.  TEL : 91-11-278313 44 / 45 / 55442973  Transporters, Transport Agents"
"Transporters, Transport Agents",NCR,CAPTAIN OFFSET PRINTERS,"B-18, SECTOR 58,",,,NOIDA,,911202588305/2585806/2583880,911202490834,captainoffset@hotmail.com,,Mr. Vishal  Rakesh,"Transporters, Transport Agents"
"Transporters, Transport Agents",,CRYSTAL ROADWAYS,"121, CENTRAL AVENUE,",,,KOLKATA,700073,913322351768,913322153770,crystalcal@vsnl.com,,Mr. Naresh  Agarwal,"Transporters, Transport Agents"
"Transporters, Transport Agents",,DELHI KHALRA EXPRESS TANSPORT CO.,"466, ROSHNARA ROAD,",,,DELHI,110007,911123827118,911123976792,sunnyhbf@yahoo.com,,MR. CHARANJEET  SINGH,"FLAT OWNER, TRANSPORT CONTRACTER, TRANSPORT AGENT"
"Transporters, Transport Agents",,DOOARS TRANPORT LTD.,"21/2A, A.M. ROAD, KALASIPALAYAM NEW EXTN.,",,,BANGALORE,560002,918026708622/22272461,918022225658,,,Mr. Mittal  ,TRANSPORT
"Transporters, Transport Agents",,DOOARS TRANSPORT LIMITED,"3, KHANDELWAL MARKET, 
S.C. ROAD,",,,JAIPUR,302001,911412368497/5108497,911412214812,,,Mr. Ramesh  Sharma,"TRANSPORTATION, PAKERS & MOVERS"
"Transporters, Transport Agents",,ELLENBARRIE INDUSTRIAL GASES LTD.,"3-A, RIPON ST., 2nd floor,",,,KOLKATA,700016,913322491922,913322493396,ellenbarrie@vsnl.com,http://www.ellenbarrie.com,"Mr. Padam  Agarwala,    ",transportation of Liquid Oxygen/Nitrogen/Argon
"Transporters, Transport Agents",,KALI TRANSPORT CORPN.,"33/1, N.S. ROAD, 8TH FLOOR, ",,,KOLKATA,700001,913322211022/22213221/22210259,913322208159,kalitrans@hotmail.com,,Mr. S K Gupta,TRANSPORT AGENTS
"Transporters, Transport Agents",,EXFIN SHIPPING (I) LTD.,"15, MORVI HOUSE, 28/30, GOA SHEET, BALLARD ESTATE,",,,MUMBAI,400038,912222693947,912222693950,"info@exfinshipping.com, t_hule@rediffmail.com, shilpa@exfinshipping.com",http://www.exfinshipping.com,"subhash a sharma, MR. ANAND D. SHIRSAT   ",SHIPPING AGENTS
"Transporters, Transport Agents",DELHI,BALAJI FREIGHT CARRIERS PVT. LTD.,"BG-354, Sanjay Gandhi Transport Nagar, ",,,DELHI,110042,911127831993/27832483/27833252,911127833252,balaji.goel@sify.com,http://www.balajifreightcarriers.com,Mr. Kailash  Goel,"Service Provider  of Export / Import, Consignment Delivery 
in 55 Hours, Express Service - 40 Hours. Transporters, Transport Agents"
"Transporters, Transport Agents",HYDERABAD,UNIQUE SHIPPING & LOGISTICS,"401, 4th Floor, Kishan Residency, Road Opp. Saptagiri Tower, Begumpet, 
",,,HYDERABAD,500016,9140 66324787/66318458,914066315459,uslogisticsgr@yahoo.co.uk,,Mr. G. Rama Rao,"Transporters, Transport Agents"
"Transporters, Transport Agents",,SIDDHIVINAYAK CORPORATION,"G-5, Vraj Vihar C.H.S Ltd., Sector-16, Airoli,",,,NAVI MUMBAI,400708,912227602786,912227641915,siddhivinayak_corp@yahoo.co.in,,Mr. Tarun Vinod Goyal,TRANSPORTATION SERVICES
"Transporters, Transport Agents",,SYAL AUTO CARRIERS (P) LTD.,"45, APSARA CINEMA COMPLEX, U.P. BORDER, P.O. CHIKAMBERPUR,",,,GHAZIABAD,201301,,,,,Mr. Ashwani  Kumar,"TRANSPORT AGENT, TRANSPORT CONTRACTOR FLEET OWNER"
"Transporters, Transport Agents",,SARAS SERVICES,"D/53, GREATER KAILASH ENCLAVE-II,",,,NEW DELHI,110048,911126227887/26234445,911126446397,,,MR. SANTOSH K JASRASARIA,TRAVEL AGENCY
"Transporters, Transport Agents",,TRANSPORT ORGANISERS,"21-A, SAGAR DUTTA LANE, (1ST FLOOR),",,,KOLKATA,700073,913322368251/22373442/22256929,913322367599,transport@vsnl.com,,Mr. Sujit  Das,TRANSPORTERS
"Transporters, Transport Agents",,S. ALBERT & CO. PVT. LTD.,"13/1, Whannels Road, Egmore,",,,CHENNAI,600008,914428194648/28193560/ 91-461-2321276/2321926,914428193920/ 91-461-2325826,albertco@airtelbroadband.in,,Mr. S.  PALANISAMY,"CUSTOMS HOUSE AGENTS, STEVEDORES, CLEARING AND FORWARDING AGENTS, STEAMER AGENTS, TRANSPORT CONTRACOTRS, WAREHOUSEING, EXPORTERS & IMPORTERS, SHIPPING"
"Transporters, Transport Agents",,RIGHT WAYS,"BHARDWAJ VATIKA, CHOMU PULIA, AMBABARI,",,,JAIPUR,302012,911412335270/2336655,911412337775,rightways_1@mailcity.com,,Mr. Navneet  Garg,"PACKERS & MOVERS, TRANSPORTER"
"Transporters, Transport Agents",,SHREE MATANGI TRANSPORT PVT. LTD.,"4, SHIVKRUPA APARTMENT, KARANI LANE, OPP. CORPORATION BANK, GHATKOPAR (WEST),",,,MUMBAI,400086,912225148771/25164969,912225147695,matangi@vsnl.net,,Mr. Chetan A Shah,TRANSPORT SERVICE
"Transporters, Transport Agents",DELHI,SINGH TRANSPORT GOODS CARRIER,"PLOT NO. 14, GROUND FLOOR, HASANPUR, I.P. EXTN., ",,,DELHI,110092,911122241159/22231087,,stgc_singh_transportgoodscarrier@yahoo.com,,MR. CHANDRASHEKHAR  ,"full truck, canter, tata-407/709, all type vehicle for all over india. Transporters, Transport Agents"
"Transporters, Transport Agents",MUMBAI,RUNICHA FREIGHT FORWARDERS,"15 VAJU KOTAK MARG, CONTRACTOR BUILDING, RO. NO-20, FORT,",,,MUMBAI,400001,912222650053/54,912222616235,runicha@hathway.com,http://www.runicha.com,Mr. Tushar  ,"Transporters, Transport Agents"
"Transporters, Transport Agents",,SHRI JHAI NARAIN TRADES,"SJNT BUILDINGS, IST MAIN ROAD-POST BOX NO 639, W/ISLAND,",,,KOCHI,682003,914842669462/2667195,914842667464,"jainarayana@eth.net, sjnt@giasmd01.vsnl.net.in",,"mr. M. M. , Mr. Vinod V Pai","FREIGHT FORWARDERS, C&F AGENT, TRANSPORTING"
"Transporters, Transport Agents",,SIYRAM CITY CABS LTD.,"SIYRAM STREET, DURGAPURA,",,,JAIPUR,302018,911412722227,911412722227,"siyaram@sancharnet.in, siyaram@siyaramexports.com",http://www.siyaramexports.com,"Mr. GEORGE  , Mr. Arun  Bagga",TAXI SERVICE
"Transporters, Transport Agents",DELHI,P. V. CARGO CARRIERS PVT. LTD.,"515, ANSAL CHAMBERS-II, 6, BHIKAJI CAMA PLACE,",,,NEW DELHI,110066,911141658723/26188823/26170190/91/26716052,911126170188 ,"venu@pvgroupindia.com, praveenvts@yahoo.com, ccs@pvgroupindia.com",http://www.pvcargo.com,"Mr. VENU  GOPAL, Ms. Richa  Sharma, Mr. Praveen  Vats","Transporters, Transport Agents"
"Transporters, Transport Agents",,TRANSPORT CORPORATION LTD.,"PLOT NO-456, JYATI SHILP MILL COMPOUND, RD. NO-3,",,,UDHNA,,912612270140,,xaro@xpsworld.com,http://www.xpscargo.com,MR. AJAY  SINGH,TRANSPORT
"Transporters, Transport Agents",,TRANSPORT CORPORTION OF INDIA LTD.,"TRANSPORT HOUSE, G-4, TRANSPORT NAGAR,",,,JAIPUR,302003,911412640665,911412640349,jpr@tcil.com,http://www.tcil.com,MR. Sudhakar  ,TRANSPORT RELATED SERVICES
"Transporters, Transport Agents",,SAJJAN KUMAR & BROS. PVT. LTD.,"CENTRE POINT ROOM -213, 21, OLD COURT HOUSE STREET,",,,KOLKATA,700001,913322139421/9422,913322317017,sbajoria@cal.vsnl.net.in,,MR. SAJJAN KUMAR BAJORIA,"CLEARING & FORWARDING AGENTS, (SEA & AIR)"
"Transporters, Transport Agents",DELHI,SATKAR LOGISTICS PVT. LTD.,"C-131, Flatted Factory Complex, Okhla Phase-III,",,,NEW DELHI,110020,911141802480/81/82/41802484/26365423/24,911141802484/26364425,enquiries@satkarlogistics.com,http://www.satkarlogistics.com,Mr. Amanpreet  Singh,"Transporters, Transport Agents"
"Transporters, Transport Agents",,RADHIKA EXPRESS PVT. LTD.,"7, TARACHAND DUTTA STREET, 
1ST FLOOR,",,,KOLKATA,700073,913322702831,913322388652,"radha@cal2.vsnl.net.in, neeraj0921@hotmail.com",,"MR VINEET AGARWAL  , Mr. Vineet  Agarwal",courier
"Transporters, Transport Agents",KOLKATA,SOHOM SHIPPING PVT. LTD.,"23A, NETAJI SUBHAS ROAD, 6TH FLOOR, ROOM NO.-2, ",,,KOLKATA,700001,913322313833/22131821,913322133594,shipping@sohomshipping.com,http://www.sohomshipping.com,MR  Subrata  Hazra,"Transporters, Transport Agents"
"Transporters, Transport Agents",,SRI R. R. TRANSPORT,"310, NIRMAL INDL. ESTATE ROAD NO.29, SION (E),",,,MUMBAI,400022,912224014838/30916612,912230916612/31020060,suraksha_assurance@indiatimes.com,,Mr. S R Patrachari,"PACKING, TRANSPORTATION, WAREHOUSING, courier, insurance"
Travel Agents & Tour Operators,,NOMAD EXCURSIONS PRIVATE LIMITED,"37, Regal Building, Parliament street,",,,NEW DELHI,110001,,911123345974,,http://www.nomadexcursion.com,Mr. Prem  Syal,"TRAVEL AGENTS, TICKETING HOTEL (DOMESTIC & INTERNATIONAL) TOUR OPERATOR"
Travel Agents & Tour Operators,,EURO TOURS AND TRAVELS,"1ST FLOOR, DD JUNCTION BLDG. OPP. ALAPPATT ARCADE,",,,KOCHI,682035,91484263435,914842363485,tourwitheuro@hotmail.com,,MR. jaison thakolkaran K,TRAVEL AND TOUR
Travel Agents & Tour Operators,,GLOBE EXPRESS TRAVELS PVT. LTD.,"105, RICHMOND ROAD,",,,BANGALORE,560025,918022273733/22273118/22273172,918022217459,globex@giasbg01.vsnl.net.in,http://www.globexxtravels.com,Mr. Jabbar  ,Travel Agents & Tour Operators
Travel Agents & Tour Operators,,HOLO SOLUTIONS,"147/9, KISHANGARH, VASANT KUNJ,",,,NEW DELHI,110070,911126121264/26893779/26894428,911126893779/26894428,rajivbhatnagar@yahoo.co.in,http://www.sartravelsolution.com,Mr. RAJIV  BHATNAGAR,"TOUR & TRAVEL, CARTER PLANE HIRE, DISASTER MANAGEMENT"
Travel Agents & Tour Operators,,JEEVAN TRANSPORT,"BADRIYA SCHOOL BUILDING,BADRIYA ROAD, BUNDER,",,,MANGALORE,575001,918242420509/2420804/2421548,918242420804,jeevantransport@hotmail.com,,Mr. Vinod J J Vas,"C & F AGENTS, TRANSPORT CONTRACTORS, TRUCK TERMINAL CONTRACTORS, COMMISSION AGENTS"
Travel Agents & Tour Operators,,ARJUN TOURS & TRAVELS PVT. LTD.,"G-13, GOLDEN ARCADE APTT.,
NEXT TO RAMA HOTEL, LAVELLE ROAD B-2,",,,BANGALORE,560001,918022217054,918022217054,arjuntrvl@vsnl.com,,Mr. Ravindran  ,Travel Agents & Tour Operators
Travel Agents & Tour Operators,,MER-IND TRAVELS PVT. LTD.,"PARVATHI PLAZA, 105, RICHMOND ROAD,",,,BANGALORE,560025,918022213030/22213131/22215326/22272867/22272947,918022214743,,,Mr. Biloke  ,Travel Agents & Tour Operators
Travel Agents & Tour Operators,,QAIR TRAVELS PVT. LTD.,"230A, AJC BOSE ROAD, 58, CHITRAKOOT BLDG.,",,,KOLKATA,700020,913322470718/22807777,913322400930,qairtravels@eth.net,,Mr. Ashish  Chatterjee,Travel Agents & Tour Operators
Travel Agents & Tour Operators,DELHI,SHERIF EXPRESS TRAVELS & CARGO (P) LTD.,"K-311, ST. NO.4, OLD RANGPURI ROAD,
MAHIPALPUR EXTENSION,",,,NEW DELHI,110037,911126785858/26786868,911126787197,thomas@sherifexpress.net,http://www.sherifexpress.net,Mr. Shoukath  Sherif,Travel Agents & Tour Operators
Travel Agents & Tour Operators,,SISODIYA GROUP,"35, MAIN MADRAMPURA, AJMER ROAD,",,,JAIPUR,302006,911413276570,,,,MR. Janak Singh Sisodiya,"Event Management, Travelling, Tours, Ticketing, Hotel Booking, All services"
Travel Agents & Tour Operators,,SUMIT TRAVEL & TOURS,"16-B, SHAKESPEARE SARANI,
 
 ",,,KOLKATA,700071,913322823879,913322214951,,,Sunil  Choudhury,Travel Agents & Tour Operators
Travel Agents & Tour Operators,,KULIN KUMAR TOURS AND TRAVELS,"ASHOKA PAVALLION, SAI SERVIES 22, AMBEDKAR ROAD,",,,PUNE,411011,912026052497,912026139720,sales@kulinkumar.com,http://www.kulinkumar.com,Mr. Ketan  Mehta,Travel Agents & Tour Operators
Travel Agents & Tour Operators,,THOMAS COOK (INDIA) LTD.,"PALAL TOWERS, 1ST FLOOR, RIGHT WING , M.G. ROAD, ",,,KOCHI,682016,914842369729/2374205,914842373829,mohan.krishna@in.thomascook.com,http://www.thomascook.co.in,Mr. Mohan Krishna H,"F0REIGNE EXCHANGE, CORPORATE TRAVEL, LEISURE TRAVEL"
Travel Agents & Tour Operators,,HIND MUSAFIR AGENCY PVT. LTD.,"ONLOOKER BULDING, SIR P.M. ROAD, ",,,MUMBAI,400001,912222661544/56334240,912222665033,hma@bom3.vsnl.net.in,http://www.hmatravel.com,MR. MANOHAR  ,TOURS
Travel Agents & Tour Operators,,TRANS CONTINENTS TRAVEL SERVICES,"12, 4TH FLOOR, TARDEO A/C MARKET, TARDEO,",,,MUMBAI,400034,912223512460/9820048259/23681527(r),912223515122,tcontinents@hotmail.com,,Mr. Neel  Bhatia,TRAVEL & TOURS
Travel Agents & Tour Operators,,BEACON HOLIDAYS PVT. LTD.,"MUNSHAW HOUSE, 22, RUSTOM SIDHWA MARG, FORT,",,,MUMBAI,400001,912256338822,912222679506,beaconholidays@vsnl.com,,Ms. Heena  Munshaw,"TOURS & TRAVELS, RECRUITMENTS"
Travel Agents & Tour Operators,,INDIANA TRAVEL SERVICES,"1ST FLOOR, 480, DAHANUKAR BUILDING, KALBADEVI ROAD,",,,MUMBAI,400002,912256345212,912222001044,indianatvl@hotmail.com,,Mr. Deepak  ,TRAVEL AGENT
Travel Agents & Tour Operators,,HERITAGE HOLIDAY TOURS,"C-155, SINGH BHUMI, PRATAP MARG, KATHIPURA,",,,JAIPUR,302021,911412357296,911412357296,holiday@datainfosys.net,http://www.heritage-tour.com,MR. RATHORE  ,TOURS & TRAVELS
Travel Agents & Tour Operators,,SKYVIEW TRAVEL AGENCY,"M-13, SARGAM SHOPPING CENTRE, NEAR PARLE POINT,",,,SURAT,395007,912612212580/5603457,912612212580,skyviewtravel@sify.com,,MR. MEHERNOSH  DEVGADHWALA,"PASSPORT & VISA ASSISTANCE , DOMESTIC & INTERNATIONAL TOURS & AIR TICKET, HOTEL BOOKING-CAR HIRE, OVERSEAS JOB CONSULTING"
Travel Agents & Tour Operators,,SPEED TOTAL FREIGHT & TRAVELS PVT. LTD.,"177-B, SYDENHAMS RAOD, CHOOLAI,",,,CHENNAI,600003,914425385556/25365380,914425388156,,,MR. IMMANVEL  ,"VISA FOR TOUR PASSPORT, TOURS & TRAVELS AND FREIGHT FORWARDING"
Travel Agents & Tour Operators,,COMPETENT TRAVELS PVT. LTD.,"18/20, W.E.A., KAROL BAGH,",,,NEW DELHI,110005,911125762512,911125762512,,,Mr. Prem  Sagar,"TOURS & TRAVELS AGENT, INBOUND/OUTBOUND TOUR PACKAGES, AIR TICKETING DOMESTIC / INTERNATIONAL HOTEL BOOKING"
Travel Agents & Tour Operators,,ECHDEE TRAVELS PVT. LTD.,"7/8, SETHJI KI BARI, MADHUBAN,",,,UDAIPUR,313001,912942524435/36,,echee@vsnl.net,,MR. Mahendra  Dhamani,TOURS & TRAVEL
Travel Agents & Tour Operators,DELHI,EASY TOURS & TRAVELS,"A-206, 2nd floor, savitri nagar, opp. panchsheel park, ",,,NEW DELHI,110017,"911126014869,26014870",911126014870,aarvee_tc@yahoo.com,,Mr. Shyam  Kapoor,Travel Agents & Tour Operators
Travel Agents & Tour Operators,,CHINTAMANI FOOD & TRAVELS,"A-57 & A-60, JHILMIL INDUSTRIAL AREA, SHAHDARA, ",,,DELHI,110095,911122572869/22593269/22582491,911122582590,chintamanis@hotmail.com,,MR. D K SHARMA,TOURS & TRAVELS
Travel Agents & Tour Operators,,SUNHARI WORLD TRAVEL INC.,"2nd floor, nishka avenue, opp. pizza hut, swastik cross road, navrangpura,",,,AHMEDABAD,380009,9179266613851,9179266611329,sunhari_travels@yahoo.com,,Mr. subodh n. panchal,"freight forwarder, tour operator"
Travel Agents & Tour Operators,,GALAXY INTERNATIONAL TOUR CENTRE,"1118, VISHWA SHOBHA, SHIVAJI NAGAR,",,,PUNE,411004,912025652725/25654100,912025652725,shyamaladesai@hotmail.com,,MRS. SHYAMALA  DESAI,TOURS & TRAVEL
Travel Agents & Tour Operators,,EURO TOURS AND TRAVELS,"1ST FLOOR, DD JUNCTION BLDG. OPP. ALAPPATT ARCADE,",,,KOCHI,682035,91484263435,914842363485,tourwitheuro@hotmail.com,,MR. jaison thakolkaran K,TRAVEL AND TOUR
Travel Agents & Tour Operators,,GUIDELINE HOLIDAYS,"545, KALBADEVI ROAD, bharat photo house, opp. metro cinema,",,,MUMBAI,400002,912222006688,912222096677,pradeep@guidelinetravels.com,http://www.guidelineholidays.com,Mr. Deepak  ,"TOUR, TRAVELS & HOLIDAYS"
Travel Agents & Tour Operators,,BROTHER'S TOURS & TRAVELS,"6, RUSSEL STREET,",,,KOLKATA,700071,913322170042/22290289/(R)22412632,913322170042,brothers@cal2.vsnl.net.in,http://www.brothertours.com,Mr. Anirudh  Kajaria,TRAVEL & TOUR OPERATORS
Travel Agents & Tour Operators,,EXPLORE INDIA TOUR & TRAVELS,"1/2, NEW D'LIMA HOUSE, OPP. AUGMARINE SOCIETY, BAMANWADA, SAHAR P.O., ANDHER (E)",,,MUMBAI,400099,912228346281/28370393,912228370393,xploreindia@vsnl.net,http://www.exploreindiainfo.com,MR. NAGESH  SHETTY,TOUR & TOUR OPERATOR/TRAVEL AGENTS
Travel Agents & Tour Operators,,BLUEBIRD EXPRESS,"125, ASHOKA SHOPPING CENTRE, 
L. T. ROAD,",,,MUMBAI,400001,912222671123/22674114,442222674114,"bluebirdxpress@yahoo.com, mukesh5000@yahoo.co.uk",,"Mr. Jay  Prakash, mr. Mukesh M Patel","COURIER, DOMESTIC-INTERNATIONAL-LOGISTICS, TOURS & TRAVELS, INTERNATIONAL & TICKET BOOKING"
Travel Agents & Tour Operators,BANGALORE,BHARATH INTERNATIONAL TRAVELS,"#576, Dewan's Road, (Off. M.G. Road) lakshmipuram,",,,MYSORE,570004,918212333362,918212333356 ,bittravmys@yahoo.com,http://www.bitindia.com,Mrs. Yashoda   Salian,"Service Provider of Air ticketing, Car rentals, Package tours, Hotel booking, Foreign exchange, Overseas insurance, Guest house accomdation, Resort on the beach, Conferences & Seminars, Tailore Made Holidays, Tour Agents & Tour Operator. Travel Agents & T"
Travel Agents & Tour Operators,,SISODIYA GROUP,"35, MAIN MADRAMPURA, AJMER ROAD,",,,JAIPUR,302006,911413276570,,,,MR. Janak Singh Sisodiya,"Event Management, Travelling, Tours, Ticketing, Hotel Booking, All services"
Travel Agents & Tour Operators,,GREENWAYS AIR & TRAVEL PVT. LTD.,"SUITE 7/9, 1S T FLOOR, ELPHINSTONE HOUSE, 17, MURZBAN ROAD, ",,,MUMBAI,400001,912222073879/80,912222070744,evaair@vsnl.com,,Mr. David  ,AIR & TRAVEL AGENT
Travel Agents & Tour Operators,DELHI,ESBEE ASSOCIATES INC.,"21, Rajpur Road, Civil Lines,",,,DELHI,110054,911132499500/32499600,911123979500,esbeedli@gmail.com,http://www.sb4u.in,Mr. Subhash  Bansal,Travel Agents & Tour Operators
Travel Agents & Tour Operators,,POONAM TRAVELS PVT. LTD.,"9, JAYANT APTS, OPP LUCAS SERVICES, NEAR CENTURY BAZAR, APPASAHEB MARATHE MARG, PRABHADEVI,",,,MUMBAI,400025,912224221020/4321/6424/24321966,912224321967,poonam@amamail.net,,Mr. Sanjay  Punjabi,TOURS & TRAVELS
Travel Agents & Tour Operators,ONLINESALES,SAMRAT TRAVELS,"Phulpukur, Chinsurah, ",,,HOOGLY,712101,913326807649,913326805761,samrat_travels@yahoo.com,,Mr. Alok Kumar Pathak,Travel Agents & Tour Operators  Travel Agents & Tour Operators
Travel Agents & Tour Operators,,NAVLAKHI TOURS & TRAVELS PVT. LTD.,"20, JAMBUL WADI, KALBADEVI ROAD,",,,MUMBAI,400002,912222054193/22083027,912222063137,navtrvls@bom7.vsnl.net.in,,Mr. Vipul  Bhava,TOURS & TRAVELS
Travel Agents & Tour Operators,,ARIKA TOUR & TRAVELS,"15/17, LAD WADI, 3RD, FLOOR, OLD HANUMAN LANE, KALBADEVI ROAD,",,,MUMBAI,400002,912222002366/22061502/22059059/22070823/22012971/22012985,912222070821,arikaholidays@sify.com,,Mr. Vikash  Modi,"TOURS, VISAS, PASSPORT, AIR TICKETS"
Travel Agents & Tour Operators,,NOMAD EXCURSIONS PRIVATE LIMITED,"37, Regal Building, Parliament street,",,,NEW DELHI,110001,,911123345974,,http://www.nomadexcursion.com,Mr. Prem  Syal,"TRAVEL AGENTS, TICKETING HOTEL (DOMESTIC & INTERNATIONAL) TOUR OPERATOR"
Travel Agents & Tour Operators,,ON THE MOVE TRAVELS & TOURS PVT. LTD.,"12-A, LORD SINHA ROAD, ROOM NO. 302,",,,KOLKATA,700071,913322825103/9249,913322826185,uagarwal@cal.vsnl.net.in,,Mr. A  Agarwal,"INTERNATIONAL TOURS, TRAVELS"
Travel Agents & Tour Operators,,OSHO TRAVELS PVT. LTD.,"MANOJ SHANKER GHANEKAR MARG, PRABHADEVI,",,,MUMBAI,400025,912224318920,912224318943,oshot@vsnl.com,http://www.oshotravels.com,Mr. Nilesh  Mahamaya,TOURS & TRAVELS
Travel Agents & Tour Operators,,TRISTAR TOURS & TRAVELS,"17-A, KAMER BLDG, 2ND FLOOR, 38 CAWASJI PATEL STREET, FORT,",,,MUMBAI,400001,912256346791/56338760,912256338760,"tristartourstravels@rediffmail.com, tri_star@rediffmail.com",,"kishin  , MR. KISHIN  ",TOURS & TRAVELS
Travel Agents & Tour Operators,COIMBATORE,PHOENIXS HRD SERVICES,"19/1, S.P. Kannuswamy Gounder Street, Sanganur Main Road, Near Karuppurayan Temple, Sanganur, ",,,COIMBATORE,641027,914222333800,914222333900,phoenixgh2002@yahoo.co.in,,Mr. Prema  Latha,Travel Agents & Tour Operators
Travel Agents & Tour Operators,,MERCURY TRAVELS LTD.,"4, MANGOE LANE,
",,,KOLKATA,700071,913322486751,913322885242,,http://www.mercury-india.com,MR. S S MUKHERJI,"TRAVEL AGENTS, TOUR OPERATORS"
Travel Agents & Tour Operators,,USHAKANT GROUP OF CO.,"RAJA BAHADUR MANSION, 3RD FLOOR, 22, BOMBAY SAMACHAR MARG, FORT,",,,MUMBAI,400023,912222676917/22676379/22677154,912222623674,ushakant@bom2.vsnl.net.in,,Mr. Ushakant C Sheth,TRAVEL AGENTS
Travel Agents & Tour Operators,,RAJ TOURS & TRAVELS,"135, 2ND FLOOR, DEVARAJ URS ROAD,",,,MYSORE,570001,9182122423355/22421656,918212423366,rajtravelsmys@yahoo.com,,Mr. Gulam  Mohamood,TOURS & TRAVELS
Travel Agents & Tour Operators,,VICTORIA TRAVELS PVT. LTD.,"54, CHOWRINGHEE ROAD, ",,,KOLKATA,700071,913322828258/7402/5339,913322822318,victoria@giascl01.vsnl.net.in,,Mr. D K Agarwal,"TRAVEL AGENTS, AIR TICKETING"
Travel Agents & Tour Operators,UDAIPUR,PRATAP TOURS,"207, Kamal Complex, Gulab Bagh Road,  
",,,UDAIPUR,313001,912945101432,,info@prataptours.com,http://www.prataptours.com,Mr. Jai  Singh Chouhan,"event management, tour operators, travel planner, Royal Wedding Planner, taxi & hotel booking. Travel Agents & Tour Operators"
Travel Agents & Tour Operators,,WELWORTH,"KRANTI CHOWK, ",,,AURANGABAD,431001,912402332151,912402332152,"nectar@epatra.com, welworth@hotmail.com",,"Ashish Vasant Houzwala, MR. ASHISH  MOUGWALU",TOURS & TRAVELS
Travel Agents & Tour Operators,,QAIR TRAVELS PVT. LTD.,"230A, AJC BOSE ROAD, 58, CHITRAKOOT BLDG.,",,,KOLKATA,700020,913322470718/22807777,913322400930,qairtravels@eth.net,,Mr. Ashish  Chatterjee,"TOUR, TRAVEL AGENTS. AIR TICKETING, PACKAGES TOURS"
Travel Agents & Tour Operators,DELHI,AL-HIND FOREIGN SERVICE AGENCY,"38, GF Ashoka Shopping Complex, Nr. G.T. Hospital, L. T. Road,",,,MUMBAI,400002,912222652906,912222652910,info@al-hind.com,"http://www.www.al-hind.com, www.al-hind.trade-india.com",Mr. M. H. Siddiqui,Travel Agents & Tour Operators
Travel Agents & Tour Operators,,KULIN KUMAR TOURS AND TRAVELS,"ASHOKA PAVALLION, SAI SERVIES 22, AMBEDKAR ROAD,",,,PUNE,411011,912026052497,912026139720,sales@kulinkumar.com,http://www.kulinkumar.com,Mr. Ketan  Mehta,TOURS AND TRAVELS
Travel Agents & Tour Operators,,JAIN & JAIN TRAVELS,"C.V.N. HOUSE, NEAR UMA HOTEL, ROOM NO. 1, FIRST FLOOR, CHAKALA SAHAR ROAD, ANDHERI (EAST), ",,,MUMBAI,400099,912228363699/09,912228312359,jjtravel123@yahoo.co.in,,MR. RAMESH  JAIN,TRAVELS AGENTS
Travel Agents & Tour Operators,,FARSHAK TRAVELS,"GANESH NIWAS, VEER SAVARKAR MARG, PRABHADEVI,",,,MUMBAI,400025,912224364741,912224306813,farshak@vrthere4u.com,http://www.vrthere4u.com,Mr. R T Iyer,INTERNATIONAL TOUR
Travel Agents & Tour Operators,,SAFEWAY TRAVELS,"154 G T ROAD, 2nd floor,
",,,HOWRAH,700002,,913322106275,,,Ms. B  Susmita,"INTERNATIONAL TICKET, TOUR OPERATING"
Travel Agents & Tour Operators,,ATL TRAVELS LIMITED,"ADOR HOUSE, GROUND FLOOR, 6.K. DUBASH MARG,",,,MUMBAI,400001,912222842480/5170/0476,912222870742,atltravels@rediffmail.com,,Mr. N p Shahani,INTERNATIONAL TRAVELS & TOUR
Travel Agents & Tour Operators,,SAFARI HOLIDAYS TOURS & TRAVELS PVT. LTD.,"7/1, LORD SINHA ROAD, ",,,KOLKATA,700071,913322825111/22820631,913322820631,,,Mr. Ashok Kr Dev,"OUT BOND,INBOUND TOUR / FREIGHT FORWARDING"
Travel Agents & Tour Operators,,ATLANTIC INTERNATIONAL,"OPP. BANK OF INDIA, RAIPUR CHAKLA,",,,AHMEDABAD,380001,,917922133896,iigc_info@yahoo.com,,Mr. KAMLESHBHAI  MEHTA,"PASSPORT, VIZA, TOURS, FOREIGN PACKAGE TOURS, EVENT MANAGEMENT, EXHIBITION ORGANISZATION"
Travel Agents & Tour Operators,,MONHER TRAVELS,"5, BHANDUS COURT, 1ST PASTA LANE,",,,MUMBAI,400005,912222811491/92,912222812419,monhertravels@yahoo.com,,Mr. Shiraz  Dandiwala,TRAVELS
Travel Agents & Tour Operators,DELHI,S. A. CONSULTANTS & FORWARDERS PVT. LTD.,"L-2, Kanchenjunga Building, 18, Barakhamba Road,",,,NEW DELHI,110001,911123310753/23310754/23310755/23319980,911123310797,delhi@sagroupindia.com,http://www.sagroupindia.com,Mr. ASHISH  ASAF,Travel Agents & Tour Operators
Travel Agents & Tour Operators,,INTERNATIONAL TRADE LINKS,"3, PRINTING HOUSE, 28D, POLICE COURT LANE, FORT,",,,MUMBAI,400001,912222666332/33/22622818,912222662128/22658013,itl@bom3.vsnl.net.in,http://www.internationaltradelinks.com,MR. RAJEN  SHINDE,MANPOWER EXPORTS
Travel Agents & Tour Operators,,KUNDU SPECIAL,"1, CHITTARANJAN AVENUE,",,,KOLKATA,700072,913322376767/22371785,913322552777,kundu_special@sify.com,,Mr. S P Kundu,TOUR OPERATORS
Travel Agents & Tour Operators,,LAXMI NARAYAN AIR TRAVELS LTD.,"29, N. S. SARANI LINDSAY STREET,",,,KOLKATA,700087,913322494757/4762/4766/4758,913322494768,,,Mr. Nanda  Saha,"TOURS, TRAVEL AGENTS, FOREIGN MONEY EXCHANGERS, WESTERN UNION MONEY TRANSFER."
Travel Agents & Tour Operators,OLD-DELHI,LE TRAVELWORLD PVT. LTD.,"79-80, UGF, WTC, BARAKHAMBA AVENUE,  ",,,NEW DELHI,110001,911123414141/23412121/23413030/23411881/23411700,911123411120,travelinfo@letravelworld.com,,Mr. Sunil  Dang,DEALS IN AIR TRAVEL & RELATED SERVICEs Travel Agents & Tour Operators
Travel Agents & Tour Operators,DELHI,LODESTONE TRAVELS AND TOURS PRIVATE LIMITED,"B-8, Green Park, Main, 2nd Floor,",,,NEW DELHI,110016,911126537635/26537642/42651318,911126537642/42681318,"lodestone@airtelbroadband.in, lodestone@vsnl.net",http://www.lodestone.in,"Mr. DIGAMBER  PANT, Mr. Digamber  Pant","delhi visit, all india temples, vehicle for all over india, domestic and international  air  ticketing & booking Travel Agents & Tour Operators"
Travel Agents & Tour Operators,,TRAVEL LINKS,"SRIRAMA KRUPA, NO.422, 9TH MAIN, SECOND CROSS, SWIMMING POOL ROAD, SARASWATHIPURAM,",,,MYSORE,570009,918212544993/9845111235,,,,Mr. S Sreedhar Murthy,TRAVEL ASSISTANCE & EXPORT & IMPORT & FINANCIAL CONSULTUNCY
Travel Agents & Tour Operators,,ASHOKA COMBINES INDIA,"KHETRI HOUSE ROAD,

",,,JAIPUR,302016,911412305729/2307808,911412308132,,, Anoop  Khanchandani,"TRAVEL AGENT, TOUR OPERATORS, MONEY EXCHANGER"
Travel Agents & Tour Operators,,ROGE INTERNATIONAL TOURS & TRAVELS,"IIND FLOOR, ROYALE PLAZA, BRIDGE ROAD, BANK JN., ALUVA,",,,ALUVA,683101,914842628116,914842628116,roge@eth.net,,MR. MARTIN  VARGHESE,"AIRTICKETING, VISA FORMALITIES FOR EUROPE, LIAISONING IN EUROPE"
Travel Agents & Tour Operators,,KERALA TOURISM DEVELOPMENT COROPORATION LTD.,"YATRI NIVAS, THYCADU,",,,THIRUVANANTHAPURAM,695014,914712333956,914712334780,ktdc@vsnl.com,http://www.ktdc.com,Dr. K  Elangovan,"HOTELS, RESORTS, CONDUCTED TOURS, BACKWATER CRUISES"
Travel Products,,S.B. INTERNATIONAL,"60, BHAGIRATHI KUNJ, RAILWAY ROAD, NR. ABHILASHA NURSING HOME, THANA GANG NAHAR,",,,ROORKEE,247667,911332275814,911332275814,sbint60@yahoo.co.in,, MR. Kamal Maini ,"Rowing Boat, Scooters,  Skiing & Skating,  Trophies & Souvenir Mementoes, Sport Club,
Sports Safety, Swimming,  Tennis,  Weight Lifting,
 Travel Products  Travel Products"
Travel Products,,IAL SHIPPING,"601, 6th floor, no.1 airport post, carlton tower,",,,BANGALORE,560008,918025211511,918042511500,ejantony@hotmail.com,http://www.ial.com,Mr. T. V. N. Kutty,"Travel Products, container Travel Products"
Travel Products,,PACIFIC TRENDS PVT. LTD.,"F-104, PARMESHWAR INDUSTRIAL ESTATE, CHINCHOLI BUNDER ROAD, MALAD WEST,",,,MUMBAI,400064,912228768872/40038872/40038873/40031160/28761160,912228761160,pacificent@rediffmail.com,http://www.pacificforgifts.com,Mr. V. M. Arunagiri,"BAGS, TRAVEL GOODS, LEATHER ARTICLES, BUSINESS GIFTS BAGS, TRAVEL GOODS, LEATHER ARTICLES, BUSINESS GIFTS Travel Products"
Travel Products,BANGALORE,ELEGANT,"#264 B.C.C. Layout, 2nd Stage, Vijayanagar,    ",,,BANGALORE,560040,918065610669/23398933,918023393690,elegantbags@rediffmail.com,http://www.elegantsoftluggages.com,Mr. Nithyanand B ,Travel Products
"Travel, Tourism & Hospitality",,TRAVEL SERVICES,"4, GEE GEE MINAR, 23, COLLEGE ROAD, NUNGAMBAKKAM, 
 ",,,CHENNAI,600006,914428228769,914428360671,jaymjay@sify.com,,   ,"Travel, Tourism & Hospitality"
"Travel, Tourism & Hospitality",DELHI,SHERIF EXPRESS TRAVELS & CARGO (P) LTD.,"K-311, ST. NO.4, OLD RANGPURI ROAD,
MAHIPALPUR EXTENSION,",,,NEW DELHI,110037,911126785858/26786868,911126787197,thomas@sherifexpress.net,http://www.sherifexpress.net,Mr. Shoukath  Sherif,"Travel, Tourism & Hospitality"
"Travel, Tourism & Hospitality",,HOTEL GOLDEN EMERALD,"NO. 473/14 B GULTEKDI, NEAR SALISBURY PARK,",,,PUNE,411037,912024274881/2/3/4,912024274885,vikram100@hotmail.com,,Mr. Vikram Subhash Lodha,HOSPITALITY SERVICES
"Travel, Tourism & Hospitality",,FAST FORWARD,"99, Abde Villa, Flat No. 102, S.V. Road, Khar (W), ",,,MUMBAI,400052,912226496608,,everestzr@yahoo.co.in,,Mr. Zuzer   Rangwala,"we have also ventured into adventure tourism since 2004, and have been successfully conducting high altitude trekking programs for clients mainly from europe, also have in the winter skking carnival in manali/solang, Himachal Pradesh.also train people in "
"Travel, Tourism & Hospitality",,DEVRITA EXPORTS PVT. LTD.,"201, CHURCHGATE CHAMBERS, 5, NEW MARINE LINES,",,,MUMBAI,400020,912222624609/22642399,912222659003,gulf@vsnl.com,,Mr. Zarir  Shroff,Travel & tourism
"Travel, Tourism & Hospitality",,DEPARTMENT OF TOURISM,"PARK VIEW,",,,THIRUVANANTHAPURAM,695033,914712338530/2326812/2322547,914712322279,deptour@vsnl.com,http://www.keralatorurism.net,Sree Kumar B,"Travel, Tourism & Hospitality"
"Travel, Tourism & Hospitality",OLD-DELHI,SKY XPRESS TOUR N TRAVELS PVT. LTD.,"R-52, 1st Floor, Vikas Marg, Shakarpur, ",,,DELHI,110092,"911143061527, 22457266",911122457266,skyxpress@asia.com,,Mr. Praveen  Singh,"Domestic & international Tickets, Tour packages, Honeymoon Packages, Hotel Booking, Adventure Tours, Organizing Conferences, Event Management. Travel, Tourism & Hospitality"
"Travel, Tourism & Hospitality",,HOTEL GOLDEN EMERALD,"NO. 473/14 B GULTEKDI, NEAR SALISBURY PARK,",,,PUNE,411037,912024274881/2/3/4,912024274885,vikram100@hotmail.com,,Mr. Vikram Subhash Lodha,HOSPITALITY SERVICES
"Travel, Tourism & Hospitality",UDAIPUR,PRATAP TOURS,"207, Kamal Complex, Gulab Bagh Road,  
",,,UDAIPUR,313001,912945101432,,info@prataptours.com,http://www.prataptours.com,Mr. Jai  Singh Chouhan,"Travel, Tourism & Hospitality"
Travelling Goods & Equipment,,POPULAR LEATHER CLOTH HOUSE,"36, M.G. ROAD, NEXT TO BABA SHOWROOM, ",,,PUNE,411001,912026346078,912026346078,,,Mr. NURUDDIN  HARNESSWALA,"GENUINE LEATHER LADIES HAND BAGS, PURSES, WALLETS, POUCHES, BELTS, BRIEF CASES & TRAVELLING REQUISITES Travelling Goods & Equipment"
Travelling Goods & Equipment,,KOUSHIK DIAMOND CRAFTS PVT. LTD.,"1206, SADASHIV PETH, FLAT NO. 9, GOPLAXMI APPARTMENT, LIMAYE WADI,",,,PUNE,411030,912024003691,,koushikdiamondcraft@vsnl.net,,Mr. Devdatta  Apte,Travelling Goods & Equipment
Travelling Goods & Equipment,,ASIAN WEAR,"F\208, 2nd Floor, Lado Saria, M G Road,",,,NEW DELHI,110030,911164573436,,asianwear@hotmail.com,http://www.asian-wear.com,"Mr. Imran  Mir, Mr. ASIF  MIR","leather handbags, luggage, belts, traveling bags leather handbags, luggage, belts, traveling bags Travelling Goods & Equipment"
Travelling Goods & Equipment,KOLKATA,R. R. TEXTILE & JHOOMAR MAL MUNDHRA,"3-C, Noormahal Lohia lane, Ist Floor, ",,,KOLKATA,700007,913322682973/22712524,913322712524,rrtextil@cal2.vsnl.net.in,,"Mr. Manoj  Mundhra, Mr. Ram   Mundhra",Travelling Goods & Equipment
Travelling Goods & Equipment,,METRO INDUSTRIES,"BOMBAY-AGRA ROAD, GONDE,",,,NASHIK,422403,912553225526/26,912553225527,metroind@sancharnet.in,,Mr. ANIL  MOTWANI,"TRAVEL GOODS COMPONENTS, LEATHER-LEATHERITE & PLASTIC MOULDED PRODUCTS TRAVEL GOODS COMPONENTS, LEATHER-LEATHERITE & PLASTIC MOULDED PRODUCTS Travelling Goods & Equipment"
Travelling Goods & Equipment,,RANGSONS FRAGRANCES,"1553 M.G. ROAD, P.O. BOX 52,",,,MYSORE,570004,918212521227,918212520350,arjun@rangsons.com,http://rangsons.com,"Mr. ARJUN  RANGA, Mr. SANJAY  GOEL","Candles, Craft Items, Holiday/Seasonal, Home and Garden, Personal Care, Travel Accessories Candles, Craft Items, Holiday/Seasonal, Home and Garden, Personal Care, Travel Accessories Travelling Goods & Equipment"
Travelling Goods & Equipment,,ANPEE ENTERPRISES,"2/3, PATHARE WADI, OPP. BAGICHA RESTURANT, MARVE ROAD, MALAD (W),",,,MUMBAI,400064,912228650190,912228650190,arpee@usa.com,,Mr. Ritesh  Shah," SCHOOL BAG LOCKS, FANCY ZIP SLIDERS, TRAVEL BAG TROLLEYS, HEAT TRANSFER STICKERS Travelling Goods & Equipment"
Travelling Goods & Equipment,,ANMOL COLLECTION,"6425, NABI KARIM,",,,DELHI,110055,911123674653/23681886,911123681886,,,Mr. ADEEP  PAPNEJA," LADIES BAGS, TRAVELING BAGS, SCHOOL BAGS Travelling Goods & Equipment"
Travelling Goods & Equipment,,PACIFIC ENTERPRISES,"F-104, Parmeshwar Industrial Estate, Chincholi Bunder Road, Malad (W),",,,MUMBAI,400064,912255703957/28768872/40038872/40038873/40031160,912228761160,pacificent@rediffmail.com,http://www.pacificforgifts.com,Mr. V. M. Arunagiri,"LEATHER ARTICLES, TRAVELS GOODS, BUSINESS GIFTS, ALL BAGS LEATHER ARTICLES, TRAVELS GOODS, BUSINESS GIFTS, ALL BAGS Travelling Goods & Equipment"
Travelling Goods & Equipment,,LONDON BAG WORKS,"10 & 11, Umpherson Street, Broadway,",,,CHENNAI,600108,914425363503/25388434,914425388434,,,MR. S Naina Mohd," All kinds of HIGH CLASS TRAVELLING GOODS, SCHOOL BAGS, PLASTICS COVER & FOLDER FILES, COMPLIMENTERY BAGS Travelling Goods & Equipment"
Travelling Goods & Equipment,,RAMSWAROOP BAGWALA,"SHOP NO.5, KALA KILLA, BRAMHADAS CHAWL, OPP. ASHOK MILL, SION-BANDRA LINK ROAD,",,,MUMBAI,400017,912256066350,,kramswaroop@hotmail.com,,Mr. RAMSWAROOP  KURIL, TRAVELLING & LUGGAGE BAGS Travelling Goods & Equipment
Travelling Goods & Equipment,,SHAGOON EMPORIUM,"2320-21, ARYA SAMAJ ROAD, KAROL BAGH,",,,NEW DELHI,110005,911125818441/25742888/25764708,911125738191,shagoon_emporium@hotmail.com,,Mr. ARVIND  BIRLA," LEATHER GARMENTS, PURSERS, GENTS WALLETS & TRAVELLING GOODS Travelling Goods & Equipment"
Travelling Goods & Equipment,,UNITED LUGGAGE BAGS COMPANY,"M.J. Market, Abids,",,,HYDERABAD,500001,914066779764,,unitedluggageindia@yahoo.co.in,,Mr. Shafiq  Khan,"Trolley bags, Suit Cases, Traveling bags, Executive Bags, Complimentary Bags Trolley bags, Suit Cases, Traveling bags, Executive Bags, Complimentary Bags Travelling Goods & Equipment"
Travelling Goods & Equipment,,POPULAR LEATHER CLOTH HOUSE,"36, M.G. ROAD, NEXT TO BABA SHOWROOM, ",,,PUNE,411001,912026346078,912026346078,,,Mr. NURUDDIN  HARNESSWALA," GENUINE LEATHER LADIES HAND BAGS, PURSES, WALLETS, POUCHES, BELTS, BRIEF CASES & TRAVELLING REQUISITES Travelling Goods & Equipment"
Travelling Goods & Equipment,,VATS EXPORTS,"334, EPIP, HSIDC, KUNDLI,",,,SONIPAT,131028,911302219834/91-11-27024490(R),,vatsexports@rediffmail.com,,Mr. J. B. Sharma,"Wallets, Leather Goods & Traveling Bags Wallets, Leather Goods & Traveling Bags Travelling Goods & Equipment"
Travelling Goods & Equipment,,PRINCE CORPORATION,"Salapose Road, Opp: Relief Shoping Centre, Behind GPO,",,,AHMEDABAD,380001,917925351250/25503429,917925500038,mrh_industries@yahoo.co.in,,Mr. Tamim  Rupawala ," Luggages, Bags, Traveling bags, Gift Articles Travelling Goods & Equipment"
Travelling Goods & Equipment,,ABL BIOTECHNOLOGIES LTD.,"# 55, 3Rd East Street, kamraj Nagar, thiruvamiyur,",,,CHENNAI,600041,914442020501/2,914442020501/2,admin@ablbiotechnologies.com,,"Mr. koaz  , Mr Easter prince ","pharmaceuticals products, travelling goods & equipments pharmaceuticals products, travelling goods & equipments Travelling Goods & Equipment"
Travelling Goods & Equipment,,ABL BIO-TECHNOLOGIES LTD.,"#1, 4th East Street, Kamaraj Nagar, Thiruvanmiyur,",,,CHENNAI,600041,914424410662,914424402628,"abl_softgels@rediffmail.com, abl@eth.net",,"Mr. K. O. Cherian, Mr. KOAZ  ","pharmaceuticals products, travelling goods & equipments pharmaceuticals products, travelling goods & equipments Travelling Goods & Equipment"
Travelling Goods & Equipment,,AASHI PLASTIC INDUSTRIES,"25, V.K. ESTATE, NEAR GOTA RAILWAY CROSSING, GOTA,
",,,GOTA,382481,917930917283/7801/22156418,912717242693,info@aashiplastic.com,www.aashiplastic.com,Mr. PRADEEP  TRIVEDI," PVC PACKAGING BAGS FOR GARMENTS, TRAYELINK BAGS & POUCHES, ALL TYPES OF RAINWEARS Travelling Goods & Equipment"
Travelling Goods & Equipment,,ALICON PHARMACEUTICAL PVT. LTD.,"323, DIAMOND INDUSTRIAL ESTATE, NEAR TOLL NAKA, DAHISAR (E),",,,MUMBAI,400068,912228968802/28961220/28968093/(R)28191780,912256905187/28968802,alicon@rediffmail.com,,"Mr. JASWANT S. SHAH, Mr. SUDHIR M. SHAH"," TABLETS, CAPSULES, SYRUPS, POWDER Travelling Goods & Equipment"
Travelling Goods & Equipment,,SUPREME BAG INDUSTRIES,"NO. 1, 3RD CROSS, BALAPET,",,,BANGALORE,560053,918022253657,918022253657,,,MR. T A ZUBEIR, HIGH QUALITY TRAVELWARES & BAGS AND COMPLIMENTARIES Travelling Goods & Equipment
Travelling Goods & Equipment,,STANZY OVEN EQUIPMENT,"A/9, New Gajanand Colony, Opp. Khalid Bakery, Shivaji Nagar, Govandi,",,,MUMBAI,400043,912225580057/25560268,912225582231,stanzy_oven@hotmail.com,http://www.stanzyoven.com,"Mr. YAHYA  KHAN, Mr. Zakaria   Khan","Oil Fired Direct/Indirect Automatic Traveling Ovens for Biscuit/Bread Baking/Tin Printing,
Direct Gas Fired Oven, Deck Oven, Rotary Oven, Barrel Drying & PVC/Crown Caps Oven. Benton/Ecoflame Burner Spares 
Biscuit Manufacturing Plant, Bread baking Oven,"
Travelling Goods & Equipment,,DUGGAL BROS.,"C-51, JHANDEWALAN FLATTED FACTORIES COMPLEX, ",,,DELHI,110055,911123677983,911123677983,duggal_brothers68@yahoo.com,,Mr. Atul  Duggal," LEATHER GOODS, CORPORATE GIFT, TRAVEL ACCESSORIES Travelling Goods & Equipment"
Travelling Goods & Equipment,,CHOICE LABORATORIES,"204/205, SUYOJAN BUILDING, NR. HOTEL PRESIDENT, OFF C.G. ROAD,",,,AHMEDABAD,380009,917930940443/26444660/26430851,917926448857,"asvin@choicelab.com, choice@ad1.vsnl.net.in, umendra@icenet.net, choiceahd@sify.com",http://www.choicelab.com,"Mr. A. A. Patel, Mr. VISHAL P. SANGHAVI, MR. SUMIT D. RAJANI, MR. Bhagirath T. Vaghela","TOOTH PASTE, TALCS, PETROLEUM JELLY, BABY OIL, AIR FRESHNER GEL, SHAVING CREAMS, SHAVING FOAM, DETERGENT POWDER, TOILET SOAP, SHAMPOO, TRAVEL KITS TOOTH PASTE, TALCS, PETROLEUM JELLY, BABY OIL, AIR FRESHNER GEL, SHAVING CREAMS, SHAVING FOAM, DETERGENT POW"
Travelling Goods & Equipment,,ENCON EXPORTS PVT. LTD.,"Pune small scale industrial corporative estate ltd, plot no 427/43, cts no 903, gulteakadi industrial estate,",,,PUNE,411037,912024260666,912024261889,admin@enconmfg.com,, Sheetal  Kashilkar,"leather products--raw material, finished goods, leather bags, travel bags, travel accessories, wallets, hand bags  Travelling Goods & Equipment"
Travelling Goods & Equipment,,SUNNY AD GRAPHICS,"E-32A, CHANKYA PLACE, PART-I, OPP. C-1, JANAK PURI,",,,NEW DELHI,110059,911130959139/24919384,,sunnyadgraphics@yahoo.com,http://www.sunnytent.com,MR. VINOD  KUMAR," Display Tents, Umbrella, Banner Stands, Terry Towels, Travelling Equipments, Collapsible Chairs, Novelties, Gift Items As Per Your Need & A Range  Of Screen & Digital Printed Flex Banner. Travelling Goods & Equipment"
Travelling Goods & Equipment,,CAMEL BAGS,"G-Sector, O-Line, Shop No. 6, Cheeta Camp, Trombay,",,,MUMBAI,400009,912264163270,,company_bag@yahoo.co.in,,Mr. D. kareen LABBAI,"Travel Bags, College Bags, Air Bags, School Bags, Office Bags, Laptop Bags, Tool Bags, Duffel Bags, Tote bags, High Fashion Bags, Hands free Bags, Portfolios, Rome Free Bags, Haversacks Bags, Shopping Bags, Backpacks, Pouches, Eco Friendly Bags, Planners,"
Travelling Goods & Equipment,KOLKATA,EXOTIC FASHIONS PRIVATE LIMITED,"25, Rifle Range Road, ",,,KOLKATA,700019,913322871227/22804845,913322878427,exoticfashions@vsnl.net,http://www.exoticfashions.in,Mr. Siddhartha  Jalan,Travelling Goods & Equipment
Travelling Goods & Equipment,,WILDCRAFT INDIA PVT. LTD.,"# 81/B, LAXMI MANSION, 22ND CROSS, 3RD BLOCK JAYANAGAR, ",,,BANGALORE,560011,918026647036/22455608,918022234818,adventureworks@gmail.com,,mr. DINESH  ,"bags trecking bags, school bags, Tents & Tarpaulins, Travelling Goods & Equipment  bags trecking bags, school bags Travelling Goods & Equipment"
Travelling Goods & Equipment,,SUPREME BAG HOUSE,"6160, 1st Floor, Gali Gurudwara, Nabi Karim, Jhandewalan, Pahargunj,",,,NEW DELHI,11006,911127471350,,vikas_arora31@yahoo.com,,"Mr. VISHAL  ARORA, Mr. Vikas  Arora"," Traveling Bags, School Bags, Cotton Bags Travelling Goods & Equipment"
Travelling Goods & Equipment,,LAV EXPORTS,"3507/10, PYARELAL ROAD, KAROL BAGH,",,,NEW DELHI,110005,911125742794/25754996,911125738191,lavexports@hotmail.com,,Mr. Arvind  Birla,"LEATHER GARMENTS, GENTS WALLETS, LADIES PURSES & TRAVELLING GOODS, PURSES, BAGS LEATHER GARMENTS, GENTS WALLETS, LADIES PURSES & TRAVELLING GOODS, PURSES, BAGS Travelling Goods & Equipment"
Travelling Goods & Equipment,,SILVERTONES IMPEX PVT. LTD.,"95-A, CONNAGHT CIRCUS,",,,NEW DELHI,110001,911123547246,911141598399,suntopbags@gmail.com,http://www.suntopbags.org,Mr. Vinay K. Chawla,"PVC /PU COATED FABRICS, REXINES, INDUSTRIAL FABRICS, COTTON CLOTH, CANVAS, PVC FILMS BAGS, TRAVELLING CASES, BACKPACKS PVC /PU COATED FABRICS, REXINES, INDUSTRIAL FABRICS, COTTON CLOTH, CANVAS, PVC FILMS BAGS, TRAVELLING CASES, BACKPACKS Travelling Goods "
Travelling Goods & Equipment,,BEE EN FOAM PRODUCTS,"B-74, SECTOR-VIII,",,,NOIDA,201301,911202424546/576,,,http://www.indianinfonet.com/hh/bee,Mr. Mehta  ,"POLYESTER FIBRE, POLYURETHANE FOAM, PILLOWS, MATTRESSES, CUSHIONS, BOALSTERS, TRAAVELLING KITS, TOYS, QUILTS & OTHER FOAM ITEMS, HOME FURNISHING, UPHOLSTERY FABRICS POLYESTER FIBRE, POLYURETHANE FOAM, PILLOWS, MATTRESSES, CUSHIONS, BOALSTERS, TRAAVELLING "
Travelling Goods & Equipment,,SHREE VANI INDUSTRIES,"NO. 29, ARUNA RAMESH BUILDING, MAMULPET,",,,BANGALORE,560053,918022873967/26606070,918022873966,,,Mr. BABU  ," SUITCASE, BAGS & TRAVELING GOODS, COLLEGE BAGS Travelling Goods & Equipment"
Travelling Goods & Equipment,,SGL LEATHERS,"15 RAMASWAMY STREET, RADHA NAGAR, CHROMPET,",,,CHENNAI,600044,914422650372/2660,914422650888/2660,pkmurthy@vsnl.net,,"Mr. P.  KRISHNAMURTHY, Mr. K. THOMAS ABRAHAM","TRAVEL/LUGGAGEWARE, PASSPORT HOLDERS/CREDIT CARD HOLDERS, LADIES HANDBAGS & OTHER BAGS, WALLETS TRAVEL/LUGGAGEWARE, PASSPORT HOLDERS/CREDIT CARD HOLDERS, LADIES HANDBAGS & OTHER BAGS, WALLETS Travelling Goods & Equipment"
Travelling Goods & Equipment,MUMBAI,BALAJI INDUSTRIES,"66/67, GOLD FIELD PLAZA, KALLAKILA, DHARAVI,",,,MUMBAI,400017,912224012390,912224012390,maniksent@hotmail.com,http://www.kashwallets.co.in,Ms. Parvati B. Fatnani,Travelling Goods & Equipment
Travelling Goods & Equipment,KOLKATA,IMPRESSIVE EXPORTS,"T/11G/2, MCLEOD STREET, 3RD FLOOR",,,KOLKATA,700016,913322172051/22262618/22299970,913322172051,impresiv@cal3.vsnl.net.in,http://www.impressiveexport.com,Mr. S.R  Rahman,Travelling Goods & Equipment
Travelling Goods & Equipment,,A & A INTERNATIONAL,"A-1101, Panchsheel Heights, Mahavir Nagar, Kandivli West,",,,MUMBAI,400067,912266680604,912228605807,info@aaintl.net,,Mr. Hemu   Suvarna,"Corporate Gift articles- Leather Wallets, Travel Accessories, Nylon Bags, Port Folio Bags  Travelling Goods & Equipment"
Travelling Goods & Equipment,,FRASER TECHNO CIRCUITS LIMITED,"SHREE NIWAS HOUSE, 2ND FLOOR, H. SAMANI MARG, FORT,",,,MUMBAI,400001,912222072455/22073058,912222079401,fraser@bgl.vsnl.net.in,http://www.frasertechno.com,"Mr.   , Mr. Narendra  Damani","SOFTWARE POWER INLINE SURGE PROTECTORS, LAPTOP TRAVEL ACCESSORIES, MULTI-SOCKET OUTLET, RACK MOUNT UNITS Travelling Goods & Equipment"
Travelling Goods & Equipment,,K. A. P. INDUSTRIES,"19, ARUNA RAMESH BUILDING, MAMULPET,",,,BANGALORE,560053,918022872478/26569167(R),918022872478,"bagskap@yahoo.co.in, vamshikr@sify.com",http://www.kapindustries.com,"Mr. VAMISHI  , MR. RAM  PRASAD"," COMPLIMENTARY BAGS, TRAVEL BAGS, TRAVELING REQUIREMENT BAGS Travelling Goods & Equipment"
